{"type": "FeatureCollection", "features": [ {"type": "Feature", "properties": {"norad_id": 30173, "name": "FENGYUN 1C DEB", "group": "fengyun-1c-debris", "lat": 50.68447963831958, "lon": 50.83841572935983, "alt_km": 891.4374254145978, "timestamp": "2025-12-17T04:57:44.640836+00:00", "meta": {"OBJECT_NAME": "FENGYUN 1C DEB", "OBJECT_ID": "1999-025UE", "EPOCH": "2025-12-16T17:23:33.576288", "MEAN_MOTION": 14.11407978, "ECCENTRICITY": 0.00807699, "INCLINATION": 98.9774, "RA_OF_ASC_NODE": 61.486, "ARG_OF_PERICENTER": 277.2624, "MEAN_ANOMALY": 205.6296, "EPHEMERIS_TYPE": 0, "CLASSIFICATION_TYPE": "U", "NORAD_CAT_ID": 30173, "ELEMENT_SET_NO": 999, "REV_AT_EPOCH": 96605, "BSTAR": 0.0013631635, "MEAN_MOTION_DOT": 2.5e-05, "MEAN_MOTION_DDOT": 0}, "tle": {"line1": "1 30173U 99025UE  25350.72469417  .00002500  00000+0  13632-2 0  9997", "line2": "2 30173  98.9774  61.4860 0080769 277.2624 205.6296 14.11407978966053"}}, "geometry": {"type": "Point", "coordinates": [50.83841572935983, 50.68447963831958]}}, {"type": "Feature", "properties": {"norad_id": 30174, "name": "FENGYUN 1C DEB", "group": "fengyun-1c-debris", "lat": 74.46850938531206, "lon": -5.7730046899654095, "alt_km": 613.9902490987115, "timestamp": "2025-12-17T04:57:44.640845+00:00", "meta": {"OBJECT_NAME": "FENGYUN 1C DEB", "OBJECT_ID": "1999-025UF", "EPOCH": "2025-12-16T15:48:48.172032", "MEAN_MOTION": 14.81297559, "ECCENTRICITY": 0.00183766, "INCLINATION": 98.7754, "RA_OF_ASC_NODE": 139.8601, "ARG_OF_PERICENTER": 32.7157, "MEAN_ANOMALY": 29.9908, "EPHEMERIS_TYPE": 0, "CLASSIFICATION_TYPE": "U", "NORAD_CAT_ID": 30174, "ELEMENT_SET_NO": 999, "REV_AT_EPOCH": 98426, "BSTAR": 0.0032720391, "MEAN_MOTION_DOT": 0.00025629, "MEAN_MOTION_DDOT": 0}, "tle": {"line1": "1 30174U 99025UF  25350.65889088  .00025629  00000+0  32720-2 0  9996", "line2": "2 30174  98.7754 139.8601 0018376  32.7157  29.9908 14.81297559984262"}}, "geometry": {"type": "Point", "coordinates": [-5.7730046899654095, 74.46850938531206]}}, {"type": "Feature", "properties": {"norad_id": 30175, "name": "FENGYUN 1C DEB", "group": "fengyun-1c-debris", "lat": 52.87924722399117, "lon": 34.6528130041726, "alt_km": 1034.525598876664, "timestamp": "2025-12-17T04:57:44.640855+00:00", "meta": {"OBJECT_NAME": "FENGYUN 1C DEB", "OBJECT_ID": "1999-025UG", "EPOCH": "2025-12-16T17:07:37.402176", "MEAN_MOTION": 13.83870973, "ECCENTRICITY": 0.01464613, "INCLINATION": 99.3809, "RA_OF_ASC_NODE": 46.7765, "ARG_OF_PERICENTER": 202.1079, "MEAN_ANOMALY": 277.3222, "EPHEMERIS_TYPE": 0, "CLASSIFICATION_TYPE": "U", "NORAD_CAT_ID": 30175, "ELEMENT_SET_NO": 999, "REV_AT_EPOCH": 95395, "BSTAR": 0.00039467367, "MEAN_MOTION_DOT": 4.3e-06, "MEAN_MOTION_DDOT": 0}, "tle": {"line1": "1 30175U 99025UG  25350.71362734  .00000430  00000+0  39467-3 0  9997", "line2": "2 30175  99.3809  46.7765 0146461 202.1079 277.3222 13.83870973953959"}}, "geometry": {"type": "Point", "coordinates": [34.6528130041726, 52.87924722399117]}}, {"type": "Feature", "properties": {"norad_id": 30177, "name": "FENGYUN 1C DEB", "group": "fengyun-1c-debris", "lat": -61.99423417197918, "lon": 97.77460883246108, "alt_km": 1170.0220640533107, "timestamp": "2025-12-17T04:57:44.640863+00:00", "meta": {"OBJECT_NAME": "FENGYUN 1C DEB", "OBJECT_ID": "1999-025UJ", "EPOCH": "2025-12-16T07:23:53.054016", "MEAN_MOTION": 13.62821337, "ECCENTRICITY": 0.04517963, "INCLINATION": 98.6269, "RA_OF_ASC_NODE": 293.5607, "ARG_OF_PERICENTER": 128.9699, "MEAN_ANOMALY": 23.6435, "EPHEMERIS_TYPE": 0, "CLASSIFICATION_TYPE": "U", "NORAD_CAT_ID": 30177, "ELEMENT_SET_NO": 999, "REV_AT_EPOCH": 93511, "BSTAR": 0.00075804995, "MEAN_MOTION_DOT": 1.146e-05, "MEAN_MOTION_DDOT": 0}, "tle": {"line1": "1 30177U 99025UJ  25350.30825294  .00001146  00000+0  75805-3 0  9990", "line2": "2 30177  98.6269 293.5607 0451796 128.9699  23.6435 13.62821337935116"}}, "geometry": {"type": "Point", "coordinates": [97.77460883246108, -61.99423417197918]}}, {"type": "Feature", "properties": {"norad_id": 30178, "name": "FENGYUN 1C DEB", "group": "fengyun-1c-debris", "lat": 57.74167068342329, "lon": -154.41270297982896, "alt_km": 916.9025662797776, "timestamp": "2025-12-17T04:57:44.640872+00:00", "meta": {"OBJECT_NAME": "FENGYUN 1C DEB", "OBJECT_ID": "1999-025UK", "EPOCH": "2025-12-16T14:48:32.559264", "MEAN_MOTION": 13.58698036, "ECCENTRICITY": 0.02806859, "INCLINATION": 102.2606, "RA_OF_ASC_NODE": 225.0043, "ARG_OF_PERICENTER": 118.2256, "MEAN_ANOMALY": 301.2406, "EPHEMERIS_TYPE": 0, "CLASSIFICATION_TYPE": "U", "NORAD_CAT_ID": 30178, "ELEMENT_SET_NO": 999, "REV_AT_EPOCH": 93224, "BSTAR": 0.0016561139, "MEAN_MOTION_DOT": 1.504e-05, "MEAN_MOTION_DDOT": 0}, "tle": {"line1": "1 30178U 99025UK  25350.61704351  .00001504  00000+0  16561-2 0  9996", "line2": "2 30178 102.2606 225.0043 0280685 118.2256 301.2406 13.58698036932243"}}, "geometry": {"type": "Point", "coordinates": [-154.41270297982896, 57.74167068342329]}}, {"type": "Feature", "properties": {"norad_id": 30181, "name": "FENGYUN 1C DEB", "group": "fengyun-1c-debris", "lat": 80.32965464067956, "lon": 8.462233826548026, "alt_km": 791.4277982563935, "timestamp": "2025-12-17T04:57:44.640881+00:00", "meta": {"OBJECT_NAME": "FENGYUN 1C DEB", "OBJECT_ID": "1999-025UN", "EPOCH": "2025-12-16T19:03:19.884960", "MEAN_MOTION": 14.29276005, "ECCENTRICITY": 0.00399975, "INCLINATION": 98.8437, "RA_OF_ASC_NODE": 74.0606, "ARG_OF_PERICENTER": 347.609, "MEAN_ANOMALY": 135.2827, "EPHEMERIS_TYPE": 0, "CLASSIFICATION_TYPE": "U", "NORAD_CAT_ID": 30181, "ELEMENT_SET_NO": 999, "REV_AT_EPOCH": 97569, "BSTAR": 0.0011425807, "MEAN_MOTION_DOT": 2.886e-05, "MEAN_MOTION_DDOT": 0}, "tle": {"line1": "1 30181U 99025UN  25350.79398015  .00002886  00000+0  11426-2 0  9994", "line2": "2 30181  98.8437  74.0606 0039997 347.6090 135.2827 14.29276005975693"}}, "geometry": {"type": "Point", "coordinates": [8.462233826548026, 80.32965464067956]}}, {"type": "Feature", "properties": {"norad_id": 30182, "name": "FENGYUN 1C DEB", "group": "fengyun-1c-debris", "lat": 36.67051725013081, "lon": -131.05561495291346, "alt_km": 939.847474168213, "timestamp": "2025-12-17T04:57:44.640890+00:00", "meta": {"OBJECT_NAME": "FENGYUN 1C DEB", "OBJECT_ID": "1999-025UP", "EPOCH": "2025-12-16T23:41:38.272128", "MEAN_MOTION": 13.96459152, "ECCENTRICITY": 0.00748256, "INCLINATION": 99.0653, "RA_OF_ASC_NODE": 41.9011, "ARG_OF_PERICENTER": 11.0392, "MEAN_ANOMALY": 108.0529, "EPHEMERIS_TYPE": 0, "CLASSIFICATION_TYPE": "U", "NORAD_CAT_ID": 30182, "ELEMENT_SET_NO": 999, "REV_AT_EPOCH": 96367, "BSTAR": 3.4201498e-05, "MEAN_MOTION_DOT": 4e-08, "MEAN_MOTION_DDOT": 0}, "tle": {"line1": "1 30182U 99025UP  25350.98724852  .00000004  00000+0  34201-4 0  9996", "line2": "2 30182  99.0653  41.9011 0074825  11.0392 108.0529 13.96459152963677"}}, "geometry": {"type": "Point", "coordinates": [-131.05561495291346, 36.67051725013081]}}, {"type": "Feature", "properties": {"norad_id": 30183, "name": "FENGYUN 1C DEB", "group": "fengyun-1c-debris", "lat": -24.4838226239649, "lon": -150.67878433763863, "alt_km": 840.3623292361463, "timestamp": "2025-12-17T04:57:44.640899+00:00", "meta": {"OBJECT_NAME": "FENGYUN 1C DEB", "OBJECT_ID": "1999-025UQ", "EPOCH": "2025-12-16T16:40:00.404832", "MEAN_MOTION": 14.12669906, "ECCENTRICITY": 0.00260921, "INCLINATION": 98.7883, "RA_OF_ASC_NODE": 32.8583, "ARG_OF_PERICENTER": 241.685, "MEAN_ANOMALY": 239.1777, "EPHEMERIS_TYPE": 0, "CLASSIFICATION_TYPE": "U", "NORAD_CAT_ID": 30183, "ELEMENT_SET_NO": 999, "REV_AT_EPOCH": 97199, "BSTAR": 0.00050308915, "MEAN_MOTION_DOT": 8.92e-06, "MEAN_MOTION_DDOT": 0}, "tle": {"line1": "1 30183U 99025UQ  25350.69444913  .00000892  00000+0  50309-3 0  9993", "line2": "2 30183  98.7883  32.8583 0026092 241.6850 239.1777 14.12669906971999"}}, "geometry": {"type": "Point", "coordinates": [-150.67878433763863, -24.4838226239649]}}, {"type": "Feature", "properties": {"norad_id": 30191, "name": "FENGYUN 1C DEB", "group": "fengyun-1c-debris", "lat": 78.09972620919113, "lon": -70.0696985116421, "alt_km": 687.603791696386, "timestamp": "2025-12-17T04:57:44.640908+00:00", "meta": {"OBJECT_NAME": "FENGYUN 1C DEB", "OBJECT_ID": "1999-025UY", "EPOCH": "2025-12-16T17:42:49.031136", "MEAN_MOTION": 14.78087029, "ECCENTRICITY": 0.00971221, "INCLINATION": 98.7763, "RA_OF_ASC_NODE": 62.2745, "ARG_OF_PERICENTER": 250.8013, "MEAN_ANOMALY": 235.2568, "EPHEMERIS_TYPE": 0, "CLASSIFICATION_TYPE": "U", "NORAD_CAT_ID": 30191, "ELEMENT_SET_NO": 999, "REV_AT_EPOCH": 334, "BSTAR": 0.00092011593, "MEAN_MOTION_DOT": 7.135e-05, "MEAN_MOTION_DDOT": 0}, "tle": {"line1": "1 30191U 99025UY  25350.73806749  .00007135  00000+0  92012-3 0  9990", "line2": "2 30191  98.7763  62.2745 0097122 250.8013 235.2568 14.78087029  3349"}}, "geometry": {"type": "Point", "coordinates": [-70.0696985116421, 78.09972620919113]}}, {"type": "Feature", "properties": {"norad_id": 30193, "name": "FENGYUN 1C DEB", "group": "fengyun-1c-debris", "lat": 66.6832264213467, "lon": -121.3672432167886, "alt_km": 673.748947916406, "timestamp": "2025-12-17T04:57:44.640917+00:00", "meta": {"OBJECT_NAME": "FENGYUN 1C DEB", "OBJECT_ID": "1999-025VA", "EPOCH": "2025-12-16T23:44:47.016384", "MEAN_MOTION": 14.49143087, "ECCENTRICITY": 0.01073872, "INCLINATION": 98.7566, "RA_OF_ASC_NODE": 259.3605, "ARG_OF_PERICENTER": 120.3515, "MEAN_ANOMALY": 255.7955, "EPHEMERIS_TYPE": 0, "CLASSIFICATION_TYPE": "U", "NORAD_CAT_ID": 30193, "ELEMENT_SET_NO": 999, "REV_AT_EPOCH": 99228, "BSTAR": 0.00050113881, "MEAN_MOTION_DOT": 1.999e-05, "MEAN_MOTION_DDOT": 0}, "tle": {"line1": "1 30193U 99025VA  25350.98943306  .00001999  00000+0  50114-3 0  9999", "line2": "2 30193  98.7566 259.3605 0107387 120.3515 255.7955 14.49143087992281"}}, "geometry": {"type": "Point", "coordinates": [-121.3672432167886, 66.6832264213467]}}]}